STARLINK-5122           
1 54179U 22141Y   26068.18982004 -.00002138  00000+0 -11632-3 0  9991
2 54179  53.2185   6.2525 0001485 100.9333 259.1826 15.08832639185786
PRSC-S1                 
1 65055U 25164A   26068.60758212  .00007316  00000+0  46631-3 0  9991
2 65055  41.1290 129.3637 0004466 348.3012  11.7698 15.08919510 33403
